OBJECT_NAME,OBJECT_ID,EPOCH,MEAN_MOTION,ECCENTRICITY,INCLINATION,RA_OF_ASC_NODE,ARG_OF_PERICENTER,MEAN_ANOMALY,EPHEMERIS_TYPE,CLASSIFICATION_TYPE,NORAD_CAT_ID,ELEMENT_SET_NO,REV_AT_EPOCH,BSTAR,MEAN_MOTION_DOT,MEAN_MOTION_DDOT
STARLINK-37766,2026-115F,2026-06-18T20:00:01.999008,15.47970816,.0002129,97.2850,187.1924,118.1736,178.0525,0,U,69216,999,495,-.49006E-1,-.224927E-1,0
STARLINK-37763,2026-115G,2026-06-18T20:00:01.999008,15.49150836,.0001425,97.2850,187.1409,87.7808,81.3156,0,U,69217,999,495,.99971E-3,.54586E-3,0
STARLINK-37724,2026-115H,2026-06-18T20:00:01.999008,15.42816234,.0001754,97.2846,187.2372,103.7729,269.5505,0,U,69218,999,495,-.60944E-1,-.2375414E-1,0
STARLINK-37758,2026-115J,2026-06-18T20:00:01.999008,15.43523209,.0001584,97.2843,187.2468,85.4952,312.6348,0,U,69219,999,495,-.582E-1,-.2328755E-1,0
STARLINK-37201,2026-115K,2026-06-18T20:00:01.999008,15.42906296,.0001594,97.2848,187.2435,99.6619,288.1935,0,U,69220,999,495,-.61232E-1,-.2391793E-1,0
STARLINK-37728,2026-115L,2026-06-18T20:00:01.999008,15.48034476,.0001293,97.2842,187.2290,87.2804,290.8191,0,U,69221,999,495,-.5824E-1,-.2674297E-1,0
STARLINK-37760,2026-115M,2026-06-18T20:00:01.999008,15.44343639,.0001423,97.2844,187.2538,75.5953,348.0667,0,U,69222,999,495,-.59346E-1,-.2429229E-1,0
STARLINK-37759,2026-115N,2026-06-18T20:00:01.999008,15.49153408,.0001365,97.2848,187.1442,98.5234,79.1162,0,U,69223,999,495,.83476E-3,.45516E-3,0
STARLINK-37725,2026-115P,2026-06-18T20:00:01.999008,15.49156004,.0001006,97.2848,187.1501,89.6774,100.5940,0,U,69224,999,495,.9207E-3,.50246E-3,0
STARLINK-37770,2026-115Q,2026-06-18T20:00:01.999008,15.45465763,.0001679,97.2853,187.2690,78.7800,21.2869,0,U,69225,999,495,-.56686E-1,-.2413396E-1,0
STARLINK-37736,2026-115R,2026-06-18T20:00:01.999008,15.49691897,.0001669,97.2851,187.2552,48.7041,24.0598,0,U,69226,999,495,-.40653E-1,-.2010606E-1,0
STARLINK-37737,2026-115S,2026-06-18T20:00:01.999008,15.47009537,.0001779,97.2858,187.2819,75.8916,55.3366,0,U,69227,999,497,-.53499E-1,-.2403801E-1,0
STARLINK-37618,2026-115T,2026-06-18T20:00:01.999008,15.49143905,.0001555,97.2846,187.1427,91.0937,80.0050,0,U,69228,999,495,.12737E-2,.6969E-3,0
STARLINK-37679,2026-115U,2026-06-18T20:00:01.999008,15.49154666,.0001188,97.2846,187.1470,96.7163,88.7568,0,U,69229,999,495,.84217E-3,.45925E-3,0
STARLINK-37746,2026-115V,2026-06-18T20:00:01.999008,15.49167196,.0000743,97.2850,187.1281,150.5929,349.2163,0,U,69230,999,495,.10319E-2,.56391E-3,0
STARLINK-37557,2026-115W,2026-06-18T18:26:45.843360,15.49210116,.0000687,97.2840,187.0035,121.7533,238.3785,0,U,69231,999,491,.53832E-3,.29318E-3,0
STARLINK-37745,2026-115X,2026-06-18T20:00:01.999008,15.48267954,.0001713,97.2855,187.3093,64.1469,130.9924,0,U,69232,999,495,-.52295E-1,-.2449501E-1,0
STARLINK-37739,2026-115Y,2026-06-18T20:00:01.999008,15.49150344,.0001102,97.2848,187.1245,84.3462,44.7769,0,U,69233,999,495,.11288E-2,.61702E-3,0
STARLINK-37755,2026-115Z,2026-06-18T18:48:19.073376,15.75211308,.0002172,97.2835,187.2890,80.2821,279.8689,0,U,69234,999,493,.12858E-2,.19631E-2,0
TJS-24,2026-116A,2026-06-18T20:54:21.516768,1.00272443,.0000319,0.0125,83.1869,312.0303,275.7599,0,U,69235,999,24,0,-.238E-5,0
STARLINK-37665,2026-117A,2026-06-18T12:12:51.012000,15.82172561,.0001864,53.1573,236.9878,338.0034,22.0909,0,U,69238,999,318,.1288E-2,.278139E-2,0
STARLINK-37558,2026-117B,2026-06-18T13:42:26.673120,15.82197761,.0000213,53.1570,236.6637,142.7129,217.3909,0,U,69239,999,319,.13033E-2,.281915E-2,0
STARLINK-37680,2026-117C,2026-06-18T04:34:32.077920,15.82121723,.00013565,53.1576,238.5570,106.0153,254.1020,0,U,69240,999,313,.13390852E-2,.288872E-2,0
STARLINK-37742,2026-117D,2026-06-18T18:10:42.993984,15.82041734,.0001371,53.1572,235.6914,59.4203,300.6955,0,U,69241,999,322,.84E-3,.177949E-2,0
STARLINK-37718,2026-117E,2026-06-18T18:08:56.844672,15.82039077,.0002386,53.1571,235.6826,40.6447,319.4754,0,U,69242,999,322,.10236E-2,.217989E-2,0
STARLINK-37735,2026-117F,2026-06-17T16:22:15.591360,15.82070089,.00009213,53.1576,241.0729,106.9398,253.1726,0,U,69243,999,305,.930631E-3,.197947E-2,0
STARLINK-37757,2026-117G,2026-06-18T12:01:26.082048,15.82209668,.0000464,53.1574,236.9339,291.9900,68.1074,0,U,69244,999,318,.13347E-2,.289128E-2,0
STARLINK-37767,2026-117H,2026-06-18T16:28:13.110240,15.82080407,.0000946,53.1564,235.9527,126.8226,233.2884,0,U,69245,999,321,.10547E-2,.225247E-2,0
STARLINK-35759,2026-117J,2026-06-17T16:11:41.213184,15.82057442,.00007879,53.1569,241.0219,93.2044,266.9069,0,U,69246,999,305,.93579314E-3,.198956E-2,0
