STARLINK-37766          
1 69216U 26115F   26169.83335647 -.02249270  00000+0 -49006-1 0  9999
2 69216  97.2850 187.1924 0002129 118.1736 178.0525 15.47970816  4954
STARLINK-37763          
1 69217U 26115G   26169.83335647  .00054586  00000+0  99971-3 0  9998
2 69217  97.2850 187.1409 0001425  87.7808  81.3156 15.49150836  4952
STARLINK-37724          
1 69218U 26115H   26169.83335647 -.02375414  00000+0 -60944-1 0  9995
2 69218  97.2846 187.2372 0001754 103.7729 269.5505 15.42816234  4956
STARLINK-37758          
1 69219U 26115J   26169.83335647 -.02328755  00000+0 -58200-1 0  9994
2 69219  97.2843 187.2468 0001584  85.4952 312.6348 15.43523209  4958
STARLINK-37201          
1 69220U 26115K   26169.83335647 -.02391793  00000+0 -61232-1 0  9997
2 69220  97.2848 187.2435 0001594  99.6619 288.1935 15.42906296  4956
STARLINK-37728          
1 69221U 26115L   26169.83335647 -.02674297  00000+0 -58240-1 0  9996
2 69221  97.2842 187.2290 0001293  87.2804 290.8191 15.48034476  4957
STARLINK-37760          
1 69222U 26115M   26169.83335647 -.02429229  00000+0 -59346-1 0  9998
2 69222  97.2844 187.2538 0001423  75.5953 348.0667 15.44343639  4959
STARLINK-37759          
1 69223U 26115N   26169.83335647  .00045516  00000+0  83476-3 0  9991
2 69223  97.2848 187.1442 0001365  98.5234  79.1162 15.49153408  4959
STARLINK-37725          
1 69224U 26115P   26169.83335647  .00050246  00000+0  92070-3 0  9998
2 69224  97.2848 187.1501 0001006  89.6774 100.5940 15.49156004  4956
STARLINK-37770          
1 69225U 26115Q   26169.83335647 -.02413396  00000+0 -56686-1 0  9993
2 69225  97.2853 187.2690 0001679  78.7800  21.2869 15.45465763  4958
STARLINK-37736          
1 69226U 26115R   26169.83335647 -.02010606  00000+0 -40653-1 0  9998
2 69226  97.2851 187.2552 0001669  48.7041  24.0598 15.49691897  4950
STARLINK-37737          
1 69227U 26115S   26169.83335647 -.02403801  00000+0 -53499-1 0  9994
2 69227  97.2858 187.2819 0001779  75.8916  55.3366 15.47009537  4972
STARLINK-37618          
1 69228U 26115T   26169.83335647  .00069690  00000+0  12737-2 0  9996
2 69228  97.2846 187.1427 0001555  91.0937  80.0050 15.49143905  4952
STARLINK-37679          
1 69229U 26115U   26169.83335647  .00045925  00000+0  84217-3 0  9995
2 69229  97.2846 187.1470 0001188  96.7163  88.7568 15.49154666  4951
STARLINK-37746          
1 69230U 26115V   26169.83335647  .00056391  00000+0  10319-2 0  9997
2 69230  97.2850 187.1281 0000743 150.5929 349.2163 15.49167196  4951
STARLINK-37557          
1 69231U 26115W   26169.76858615  .00029318  00000+0  53832-3 0  9992
2 69231  97.2840 187.0035 0000687 121.7533 238.3785 15.49210116  4910
STARLINK-37745          
1 69232U 26115X   26169.83335647 -.02449501  00000+0 -52295-1 0  9990
2 69232  97.2855 187.3093 0001713  64.1469 130.9924 15.48267954  4950
STARLINK-37739          
1 69233U 26115Y   26169.83335647  .00061702  00000+0  11288-2 0  9998
2 69233  97.2848 187.1245 0001102  84.3462  44.7769 15.49150344  4953
STARLINK-37755          
1 69234U 26115Z   26169.78355409  .00196310  00000+0  12858-2 0  9999
2 69234  97.2835 187.2890 0002172  80.2821 279.8689 15.75211308  4936
TJS-24                  
1 69235U 26116A   26169.87108237 -.00000238  00000+0  00000+0 0  9993
2 69235   0.0125  83.1869 0000319 312.0303 275.7599  1.00272443   248
STARLINK-37665          
1 69238U 26117A   26169.50892375  .00278139  00000+0  12880-2 0  9998
2 69238  53.1573 236.9878 0001864 338.0034  22.0909 15.82172561  3189
STARLINK-37558          
1 69239U 26117B   26169.57114205  .00281915  00000+0  13033-2 0  9992
2 69239  53.1570 236.6637 0000213 142.7129 217.3909 15.82197761  3198
STARLINK-37680          
1 69240U 26117C   26169.19064905  .00288872  00000+0  13391-2 0  9999
2 69240  53.1576 238.5570 0001356 106.0153 254.1020 15.82121723  3134
STARLINK-37742          
1 69241U 26117D   26169.75744206  .00177949  00000+0  84000-3 0  9999
2 69241  53.1572 235.6914 0001371  59.4203 300.6955 15.82041734  3222
STARLINK-37718          
1 69242U 26117E   26169.75621348  .00217989  00000+0  10236-2 0  9999
2 69242  53.1571 235.6826 0002386  40.6447 319.4754 15.82039077  3225
STARLINK-37735          
1 69243U 26117F   26168.68212490  .00197947  00000+0  93063-3 0  9996
2 69243  53.1576 241.0729 0000921 106.9398 253.1726 15.82070089  3050
STARLINK-37757          
1 69244U 26117G   26169.50099632  .00289128  00000+0  13347-2 0  9999
2 69244  53.1574 236.9339 0000464 291.9900  68.1074 15.82209668  3186
STARLINK-37767          
1 69245U 26117H   26169.68626285  .00225247  00000+0  10547-2 0  9990
2 69245  53.1564 235.9527 0000946 126.8226 233.2884 15.82080407  3212
STARLINK-35759          
1 69246U 26117J   26168.67478256  .00198956  00000+0  93579-3 0  9995
2 69246  53.1569 241.0219 0000787  93.2044 266.9069 15.82057442  3055
